STARLETTE               
1 07646U 75010A   22242.50056878 -.00000140  00000+0  27231-5 0  9992
2 07646  49.8229 177.9433 0205746 162.1916 198.6325 13.82313247402726
LAGEOS 1                
1 08820U 76039A   22242.46958559  .00000028  00000+0  00000+0 0  9994
2 08820 109.8518  64.3444 0045123 238.9981 143.4199  6.38664836824580
AJISAI (EGS)            
1 16908U 86061A   22242.55128965 -.00000098  00000+0 -59457-5 0  9991
2 16908  50.0093  91.1972 0011141 250.8840 201.7275 12.44497102307724
COSMOS 1989 (ETALON 1)  
1 19751U 89001C   22242.23480715  .00000035  00000+0  00000+0 0  9999
2 19751  64.3189 119.8483 0023798 213.3611 338.9250  2.13156307261801
COSMOS 2024 (ETALON 2)  
1 20026U 89039C   22242.55477626 -.00000056  00000+0  00000+0 0  9993
2 20026  65.5321 357.8749 0018558 218.5006 141.4930  2.13204309258939
LAGEOS 2                
1 22195U 92070B   22242.15323061 -.00000009  00000+0  00000+0 0  9998
2 22195  52.6626  63.2128 0138363 301.0405 195.9721  6.47293755705629
STELLA                  
1 22824U 93061B   22242.58336233 -.00000049  00000+0 -86362-6 0  9997
2 22824  98.9622 265.3670 0005517 306.9247 217.6167 14.27392593507113
LARES                   
1 38077U 12006A   22242.23282386 -.00000024  00000+0  90337-4 0  9992
2 38077  69.4926 141.2844 0011453 268.5076  91.4638 12.54931326483164
